KUIPER-00016            
1 63732U 25088J   25221.91668981 -.00064624  00000+0 -59026-2 0  9991
2 63732  51.8922 328.6917 0011321  86.9286 210.3174 14.94792186 15952
KUIPER-00018            
1 63733U 25088K   25221.91668981 -.01246246  00000+0 -66592-1 0  9990
2 63733  51.8765 322.4258 0009245  93.0161 146.1949 15.17665159 16043
KUIPER-00019            
1 63734U 25088L   25221.91668981 -.01585103  00000+0 -76570-1 0  9996
2 63734  51.8743 321.4424 0006555 114.0712 242.0081 15.21394817 16061
KUIPER-00020            
1 63735U 25088M   25221.91668981 -.00024383  00000+0 -13361-2 0  9994
2 63735  51.8862 323.5041 0006885 105.1000 264.7595 15.13394178 16241
KUIPER-00021            
1 63736U 25088N   25221.91668981 -.00019122  00000+0 -10435-2 0  9999
2 63736  51.8756 324.1794 0007286  91.9987 355.7206 15.13388367 16061
KUIPER-00023            
1 63737U 25088P   25221.57623425  .00019561  00000+0  11122-2 0  9995
2 63737  51.8812 326.5794 0009908 105.8249 254.3820 15.12839728 16304
KUIPER-00024            
1 63738U 25088Q   25221.91668981 -.00164532  00000+0 -48988-2 0  9991
2 63738  51.8734 319.8249 0001362 117.2675 285.9975 15.34793118 16558
KUIPER-00025            
1 63739U 25088R   25221.58335648 -.00025833  00000+0 -13540-2 0  9992
2 63739  51.8832 324.0857 0009184  96.8845   4.8450 15.14977989  5295
